{
  "norad_id": 47268,
  "name": "ONEWEB-0122",
  "history": [
    {
      "epoch": "2026-03-28T18:44:24.245952Z",
      "apogee_km": 1215.2260589097632,
      "perigee_km": 1212.229246256803,
      "latitude_deg": -2.6668449923926067e-05,
      "longitude_deg": -100.67608891017679,
      "height_km": 1216.2922822960475,
      "semi_major_axis_km": 7591.864652583283,
      "eccentricity": 0.00019737,
      "inclination_deg": 87.902,
      "raan_deg": 6.6213,
      "arg_perigee_deg": 77.5559,
      "mean_anomaly_deg": 282.579,
      "mean_motion_rev_day": 13.12441869
    },
    {
      "epoch": "2026-03-29T03:53:18.722400Z",
      "apogee_km": 1215.2161806286686,
      "perigee_km": 1212.2356152549355,
      "latitude_deg": -3.860271632496397e-06,
      "longitude_deg": 121.64571258299289,
      "height_km": 1216.291392995375,
      "semi_major_axis_km": 7591.862897941802,
      "eccentricity": 0.0001963,
      "inclination_deg": 87.902,
      "raan_deg": 6.5458,
      "arg_perigee_deg": 77.5204,
      "mean_anomaly_deg": 282.6144,
      "mean_motion_rev_day": 13.12442324
    },
    {
      "epoch": "2026-03-30T00:00:54.674784Z",
      "apogee_km": 1215.2020916571828,
      "perigee_km": 1212.250375232018,
      "latitude_deg": 1.738390421213293e-05,
      "longitude_deg": 178.75323989795385,
      "height_km": 1216.2923158256706,
      "semi_major_axis_km": 7591.8632334446,
      "eccentricity": 0.0001944,
      "inclination_deg": 87.9022,
      "raan_deg": 6.3797,
      "arg_perigee_deg": 77.4185,
      "mean_anomaly_deg": 282.7161,
      "mean_motion_rev_day": 13.12442237
    },
    {
      "epoch": "2026-03-30T00:00:54.675648Z",
      "apogee_km": 1215.2023953317112,
      "perigee_km": 1212.2500715574897,
      "latitude_deg": 1.2884756311590404e-05,
      "longitude_deg": 178.75323612412632,
      "height_km": 1216.292249665217,
      "semi_major_axis_km": 7591.8632334446,
      "eccentricity": 0.00019444,
      "inclination_deg": 87.9022,
      "raan_deg": 6.3797,
      "arg_perigee_deg": 77.4185,
      "mean_anomaly_deg": 282.7161,
      "mean_motion_rev_day": 13.12442237
    },
    {
      "epoch": "2026-03-30T07:20:02.268384Z",
      "apogee_km": 1215.199734593877,
      "perigee_km": 1212.2489299312538,
      "latitude_deg": 6.460271240004876e-05,
      "longitude_deg": 68.61043052128908,
      "height_km": 1216.3086328574668,
      "semi_major_axis_km": 7591.861332262565,
      "eccentricity": 0.00019434,
      "inclination_deg": 87.9022,
      "raan_deg": 6.3191,
      "arg_perigee_deg": 78.1389,
      "mean_anomaly_deg": 281.9958,
      "mean_motion_rev_day": 13.1244273
    },
    {
      "epoch": "2026-03-30T18:18:43.682976Z",
      "apogee_km": 1215.2035757730855,
      "perigee_km": 1212.2445720009264,
      "latitude_deg": 3.7915202005743274e-05,
      "longitude_deg": -96.60338817369295,
      "height_km": 1216.2970789425835,
      "semi_major_axis_km": 7591.861073887006,
      "eccentricity": 0.00019488,
      "inclination_deg": 87.9023,
      "raan_deg": 6.2287,
      "arg_perigee_deg": 77.725,
      "mean_anomaly_deg": 282.4097,
      "mean_motion_rev_day": 13.12442797
    },
    {
      "epoch": "2026-03-31T07:07:11.955360Z",
      "apogee_km": 1215.2033725700803,
      "perigee_km": 1212.2445206847415,
      "latitude_deg": 6.884701173172098e-05,
      "longitude_deg": 70.64721219387226,
      "height_km": 1216.2600544308928,
      "semi_major_axis_km": 7591.86094662741,
      "eccentricity": 0.00019487,
      "inclination_deg": 87.9022,
      "raan_deg": 6.1231,
      "arg_perigee_deg": 76.2574,
      "mean_anomaly_deg": 283.8772,
      "mean_motion_rev_day": 13.1244283
    },
    {
      "epoch": "2026-04-01T06:54:21.573216Z",
      "apogee_km": 1215.19982235541,
      "perigee_km": 1212.2450706588297,
      "latitude_deg": -2.677844581024295e-05,
      "longitude_deg": 72.68387913844548,
      "height_km": 1216.265893867875,
      "semi_major_axis_km": 7591.85944650712,
      "eccentricity": 0.0001946,
      "inclination_deg": 87.9023,
      "raan_deg": 5.9267,
      "arg_perigee_deg": 76.5301,
      "mean_anomaly_deg": 283.6044,
      "mean_motion_rev_day": 13.12443219
    },
    {
      "epoch": "2026-04-02T12:10:51.742848Z",
      "apogee_km": 1215.1985492241374,
      "perigee_km": 1212.2413691014044,
      "latitude_deg": -4.345093838276433e-06,
      "longitude_deg": -7.885909075354719,
      "height_km": 1216.2522639236374,
      "semi_major_axis_km": 7591.85695916277,
      "eccentricity": 0.00019476,
      "inclination_deg": 87.9024,
      "raan_deg": 5.6849,
      "arg_perigee_deg": 76.097,
      "mean_anomaly_deg": 284.0375,
      "mean_motion_rev_day": 13.12443864
    },
    {
      "epoch": "2026-04-03T19:17:08.575872Z",
      "apogee_km": 1215.1982864506117,
      "perigee_km": 1212.2329088259748,
      "latitude_deg": 2.0831751301683563e-05,
      "longitude_deg": -115.99016911979038,
      "height_km": 1216.2508798274605,
      "semi_major_axis_km": 7591.852597638293,
      "eccentricity": 0.0001953,
      "inclination_deg": 87.9021,
      "raan_deg": 5.4282,
      "arg_perigee_deg": 76.2553,
      "mean_anomaly_deg": 283.8793,
      "mean_motion_rev_day": 13.12444995
    },
    {
      "epoch": "2026-04-04T06:15:49.785696Z",
      "apogee_km": 1215.1912643116193,
      "perigee_km": 1212.2375785975883,
      "latitude_deg": 1.4802844994506895e-06,
      "longitude_deg": 78.79656719712267,
      "height_km": 1216.2524312812593,
      "semi_major_axis_km": 7591.851421454604,
      "eccentricity": 0.00019453,
      "inclination_deg": 87.9021,
      "raan_deg": 5.3375,
      "arg_perigee_deg": 76.3081,
      "mean_anomaly_deg": 283.8264,
      "mean_motion_rev_day": 13.124453
    },
    {
      "epoch": "2026-04-05T11:32:19.676256Z",
      "apogee_km": 1215.1791815993138,
      "perigee_km": 1212.2467536308222,
      "latitude_deg": -1.524294954350832e-05,
      "longitude_deg": -1.7717592562286661,
      "height_km": 1216.2461560276136,
      "semi_major_axis_km": 7591.849967615068,
      "eccentricity": 0.00019313,
      "inclination_deg": 87.902,
      "raan_deg": 5.096,
      "arg_perigee_deg": 76.0116,
      "mean_anomaly_deg": 284.1227,
      "mean_motion_rev_day": 13.12445677
    },
    {
      "epoch": "2026-04-05T17:01:40.371456Z",
      "apogee_km": 1215.1896082215208,
      "perigee_km": 1212.2424508754493,
      "latitude_deg": 4.495782071144479e-06,
      "longitude_deg": -84.37871753391818,
      "height_km": 1216.240254661921,
      "semi_major_axis_km": 7591.853029548484,
      "eccentricity": 0.0001941,
      "inclination_deg": 87.9021,
      "raan_deg": 5.0507,
      "arg_perigee_deg": 75.7243,
      "mean_anomaly_deg": 284.4101,
      "mean_motion_rev_day": 13.12444883
    },
    {
      "epoch": "2026-04-06T05:50:08.413152Z",
      "apogee_km": 1215.1880367884214,
      "perigee_km": 1212.2416390901171,
      "latitude_deg": -8.868941150436456e-05,
      "longitude_deg": 82.8727403274759,
      "height_km": 1216.2387159145442,
      "semi_major_axis_km": 7591.851837939269,
      "eccentricity": 0.00019405,
      "inclination_deg": 87.902,
      "raan_deg": 4.945,
      "arg_perigee_deg": 75.706,
      "mean_anomaly_deg": 284.4283,
      "mean_motion_rev_day": 13.12445192
    }
  ]
}